ONEWEB-0195             
1 48240U 21031AG  24081.78103542  .00000309  00000+0  79821-3 0  9991
2 48240  87.8889  92.3640 0001651 104.8202 255.3110 13.14502319140766
ONEWEB-0201             
1 48241U 21031AH  24081.76993307  .00000068  00000+0  14909-3 0  9994
2 48241  87.8891  92.3978 0001853  96.2337 263.9004 13.14501878140992
ONEWEB-0207             
1 48242U 21031AJ  24081.52096252 -.00000147  00000+0 -43149-3 0  9990
2 48242  87.8890  92.4146 0002146  95.2910 264.8465 13.14503619140875
ONEWEB-0208             
1 48243U 21031AK  24081.95943123 -.00000036  00000+0 -13047-3 0  9997
2 48243  87.8891  92.3423 0001768  95.3980 264.7352 13.14500910140944
ONEWEB-0200             
1 48244U 21031AL  24081.77072692  .00000158  00000+0  39085-3 0  9995
2 48244  87.8887  92.3785 0001709  97.1774 262.9550 13.14502604140848
ONEWEB-0217             
1 48245U 21031AM  24081.93882241  .00000264  00000+0  67832-3 0  9992
2 48245  87.8890  92.3294 0001565  97.6911 262.4396 13.14502845140813
ONEWEB-0211             
1 48767U 21045A   24082.46750103  .00000218  00000+0  54432-3 0  9997
2 48767  87.8977  61.7095 0001842  86.5095 273.6245 13.15548790138167
ONEWEB-0223             
1 48768U 21045B   24081.95727572 -.00000029  00000+0 -11150-3 0  9997
2 48768  87.8979  61.8158 0001385  63.9879 296.1393 13.15548842136959
